[{"OBJECT_NAME":"STARLINK-35358","OBJECT_ID":"2025-268H","EPOCH":"2026-03-09T04:19:45.468768","MEAN_MOTION":15.27581703,"ECCENTRICITY":0.00017583,"INCLINATION":43.0022,"RA_OF_ASC_NODE":349.7872,"ARG_OF_PERICENTER":257.8104,"MEAN_ANOMALY":102.2551,"EPHEMERIS_TYPE":0,"CLASSIFICATION_TYPE":"U","NORAD_CAT_ID":66564,"ELEMENT_SET_NO":999,"REV_AT_EPOCH":1788,"BSTAR":0.0012274192,"MEAN_MOTION_DOT":0.0003367,"MEAN_MOTION_DDOT":0},{"OBJECT_NAME":"KUIPER-00184","OBJECT_ID":"2025-301G","EPOCH":"2026-03-09T22:00:01.999584","MEAN_MOTION":15.32782365,"ECCENTRICITY":0.00116958,"INCLINATION":51.8667,"RA_OF_ASC_NODE":64.5953,"ARG_OF_PERICENTER":53.2996,"MEAN_ANOMALY":333.7065,"EPHEMERIS_TYPE":0,"CLASSIFICATION_TYPE":"U","NORAD_CAT_ID":67139,"ELEMENT_SET_NO":999,"REV_AT_EPOCH":554,"BSTAR":-0.036844053,"MEAN_MOTION_DOT":-0.01088594,"MEAN_MOTION_DDOT":0}]
